{
  "norad_id": 67476,
  "name": "TIANQI-37",
  "history": [
    {
      "epoch": "2026-03-28T16:51:59.493024",
      "apogee_km": 906.3899069071504,
      "perigee_km": 887.1833809947557,
      "latitude_deg": -13.245549172396236,
      "longitude_deg": -84.93389663984999,
      "semi_major_axis_km": 7274.923643950953,
      "eccentricity": 0.00132005,
      "inclination_deg": 44.9818,
      "raan_deg": 79.8355,
      "arg_perigee_deg": 302.543,
      "mean_anomaly_deg": 57.4128,
      "mean_motion_rev_day": 13.99136553
    }
  ]
}